start=new Date('2021-10-15T00:00:00.000Z').valueOf();
sats=[{"APOAPSIS":"548.688","EPOCH":"2021-10-14T21:54:25.236576","EPHEMERIS_TYPE":"0","OBJECT_ID":"2020-019AX","GP_ID":"187188020","MEAN_MOTION":"15.06376683","TLE_LINE1":"1 45405U 20019AX  21287.91279209 -.00001284  00000-0 -67375-4 0  9998","RCS_SIZE":"LARGE","ECCENTRICITY":"0.00020260","MEAN_MOTION_DDOT":"0.0000000000000","ELEMENT_SET_NO":"999","PERIOD":"95.594","INCLINATION":"53.0547","RA_OF_ASC_NODE":"149.7317","TLE_LINE2":"2 45405  53.0547 149.7317 0002026  67.5436 292.5767 15.06376683 87689","SEMIMAJOR_AXIS":"6925.420","LAUNCH_DATE":"2020-03-18","NORAD_CAT_ID":"45405","COUNTRY_CODE":"US","DECAY_DATE":null,"ARG_OF_PERICENTER":"67.5436","REF_FRAME":"TEME","CLASSIFICATION_TYPE":"U","FILE":"3163138","BSTAR":"-0.00006737500000","SITE":"AFETR","MEAN_ELEMENT_THEORY":"SGP4","CENTER_NAME":"EARTH","MEAN_ANOMALY":"292.5767","OBJECT_NAME":"STARLINK-1263","TIME_SYSTEM":"UTC","PERIAPSIS":"545.882","REV_AT_EPOCH":"8768","MEAN_MOTION_DOT":"-0.00001284","OBJECT_TYPE":"PAYLOAD"},{"MEAN_MOTION_DDOT":"0.0000000000000","ELEMENT_SET_NO":"999","PERIOD":"95.592","INCLINATION":"53.0537","RA_OF_ASC_NODE":"151.1732","TLE_LINE2":"2 45406  53.0537 151.1732 0001852  71.4233 288.6957 15.06394829 87636","APOAPSIS":"548.512","EPOCH":"2021-10-14T14:07:20.180928","EPHEMERIS_TYPE":"0","OBJECT_ID":"2020-019AY","GP_ID":"187156507","MEAN_MOTION":"15.06394829","TLE_LINE1":"1 45406U 20019AY  21287.58842802 -.00001498  00000-0 -81656-4 0  9992","RCS_SIZE":"LARGE","ECCENTRICITY":"0.00018520","PERIAPSIS":"545.947","REV_AT_EPOCH":"8763","MEAN_MOTION_DOT":"-0.00001498","OBJECT_TYPE":"PAYLOAD","SEMIMAJOR_AXIS":"6925.364","LAUNCH_DATE":"2020-03-18","NORAD_CAT_ID":"45406","COUNTRY_CODE":"US","DECAY_DATE":null,"ARG_OF_PERICENTER":"71.4233","REF_FRAME":"TEME","CLASSIFICATION_TYPE":"U","SITE":"AFETR","FILE":"3162542","BSTAR":"-0.00008165600000","MEAN_ELEMENT_THEORY":"SGP4","CENTER_NAME":"EARTH","MEAN_ANOMALY":"288.6957","OBJECT_NAME":"STARLINK-1265","TIME_SYSTEM":"UTC"},{"OBJECT_NAME":"STARLINK-1275","MEAN_ANOMALY":"283.3734","TIME_SYSTEM":"UTC","NORAD_CAT_ID":"45407","LAUNCH_DATE":"2020-03-18","COUNTRY_CODE":"US","DECAY_DATE":null,"ARG_OF_PERICENTER":"76.7486","SEMIMAJOR_AXIS":"6925.533","BSTAR":"0.00076138000000","FILE":"3162513","SITE":"AFETR","MEAN_ELEMENT_THEORY":"SGP4","CENTER_NAME":"EARTH","REF_FRAME":"TEME","CLASSIFICATION_TYPE":"U","OBJECT_TYPE":"PAYLOAD","PERIAPSIS":"545.957","MEAN_MOTION_DOT":"0.00011059","REV_AT_EPOCH":"8759","ECCENTRICITY":"0.00020800","RCS_SIZE":"LARGE","TLE_LINE1":"1 45407U 20019AZ  21287.33779463  .00011059  00000-0  76138-3 0  9998","EPOCH":"2021-10-14T08:06:25.456032","APOAPSIS":"548.838","OBJECT_ID":"2020-019AZ","MEAN_MOTION":"15.06339858","GP_ID":"187156533","EPHEMERIS_TYPE":"0","PERIOD":"95.596","INCLINATION":"53.0517","RA_OF_ASC_NODE":"152.3058","TLE_LINE2":"2 45407  53.0517 152.3058 0002080  76.7486 283.3734 15.06339858 87592","MEAN_MOTION_DDOT":"0.0000000000000","ELEMENT_SET_NO":"999"},{"MEAN_MOTION_DDOT":"0.0000000000000","ELEMENT_SET_NO":"999","TLE_LINE2":"2 45408  53.0525 181.9560 0001727  66.7314 293.3856 15.06389624 87192","RA_OF_ASC_NODE":"181.9560","PERIOD":"95.593","INCLINATION":"53.0525","EPHEMERIS_TYPE":"0","OBJECT_ID":"2020-019BA","GP_ID":"187135907","MEAN_MOTION":"15.06389624","APOAPSIS":"548.441","EPOCH":"2021-10-14T09:59:10.779936","TLE_LINE1":"1 45408U 20019BA  21287.41609699 -.00002665  00000-0 -16011-3 0  9990","RCS_SIZE":"LARGE","ECCENTRICITY":"0.00017270","REV_AT_EPOCH":"8719","MEAN_MOTION_DOT":"-0.00002665","PERIAPSIS":"546.049","OBJECT_TYPE":"PAYLOAD","REF_FRAME":"TEME","CLASSIFICATION_TYPE":"U","SITE":"AFETR","FILE":"3161855","BSTAR":"-0.00016011000000","MEAN_ELEMENT_THEORY":"SGP4","CENTER_NAME":"EARTH","SEMIMAJOR_AXIS":"6925.380","COUNTRY_CODE":"US","LAUNCH_DATE":"2020-03-18","NORAD_CAT_ID":"45408","DECAY_DATE":null,"ARG_OF_PERICENTER":"66.7314","TIME_SYSTEM":"UTC","MEAN_ANOMALY":"293.3856","OBJECT_NAME":"STARLINK-1278"},{"TLE_LINE2":"2 45409  53.0525 149.8946 0001727  86.4813 273.6373 15.06387942 87687","RA_OF_ASC_NODE":"149.8946","PERIOD":"95.593","INCLINATION":"53.0525","ELEMENT_SET_NO":"999","MEAN_MOTION_DDOT":"0.0000000000000","ECCENTRICITY":"0.00017270","RCS_SIZE":"LARGE","TLE_LINE1":"1 45409U 20019BB  21287.87592960 -.00001789  00000-0 -10125-3 0  9999","GP_ID":"187188521","MEAN_MOTION":"15.06387942","OBJECT_ID":"2020-019BB","EPHEMERIS_TYPE":"0","EPOCH":"2021-10-14T21:01:20.317440","APOAPSIS":"548.447","OBJECT_TYPE":"PAYLOAD","MEAN_MOTION_DOT":"-0.00001789","REV_AT_EPOCH":"8768","PERIAPSIS":"546.055","TIME_SYSTEM":"UTC","OBJECT_NAME":"STARLINK-1282","MEAN_ANOMALY":"273.6373","CENTER_NAME":"EARTH","MEAN_ELEMENT_THEORY":"SGP4","SITE":"AFETR","FILE":"3163138","BSTAR":"-0.00010125000000","CLASSIFICATION_TYPE":"U","REF_FRAME":"TEME","DECAY_DATE":null,"ARG_OF_PERICENTER":"86.4813","COUNTRY_CODE":"US","LAUNCH_DATE":"2020-03-18","NORAD_CAT_ID":"45409","SEMIMAJOR_AXIS":"6925.386"},{"PERIAPSIS":"353.225","MEAN_MOTION_DOT":"0.00007523","REV_AT_EPOCH":"8827","OBJECT_TYPE":"PAYLOAD","NORAD_CAT_ID":"45410","LAUNCH_DATE":"2020-03-18","COUNTRY_CODE":"US","DECAY_DATE":null,"ARG_OF_PERICENTER":"34.7746","SEMIMAJOR_AXIS":"6732.908","FILE":"3162514","SITE":"AFETR","BSTAR":"0.00006234300000","MEAN_ELEMENT_THEORY":"SGP4","CENTER_NAME":"EARTH","CLASSIFICATION_TYPE":"U","REF_FRAME":"TEME","OBJECT_NAME":"STARLINK-1285","MEAN_ANOMALY":"325.3421","TIME_SYSTEM":"UTC","MEAN_MOTION_DDOT":"0.0000000000000","ELEMENT_SET_NO":"999","PERIOD":"91.636","INCLINATION":"53.0561","TLE_LINE2":"2 45410  53.0561 104.1419 0002299  34.7746 325.3421 15.71443289 88278","RA_OF_ASC_NODE":"104.1419","EPOCH":"2021-10-14T11:56:36.702528","APOAPSIS":"356.321","OBJECT_ID":"2020-019BC","GP_ID":"187156044","MEAN_MOTION":"15.71443289","EPHEMERIS_TYPE":"0","ECCENTRICITY":"0.00022990","TLE_LINE1":"1 45410U 20019BC  21287.49764702  .00007523  00000-0  62343-4 0  9994","RCS_SIZE":"LARGE"},{"PERIAPSIS":"545.926","MEAN_MOTION_DOT":"-0.00000927","REV_AT_EPOCH":"8770","OBJECT_TYPE":"PAYLOAD","NORAD_CAT_ID":"45411","LAUNCH_DATE":"2020-03-18","COUNTRY_CODE":"US","DECAY_DATE":null,"ARG_OF_PERICENTER":"75.6297","SEMIMAJOR_AXIS":"6925.375","FILE":"3163138","BSTAR":"-0.00004334700000","SITE":"AFETR","MEAN_ELEMENT_THEORY":"SGP4","CENTER_NAME":"EARTH","CLASSIFICATION_TYPE":"U","REF_FRAME":"TEME","OBJECT_NAME":"STARLINK-1293","MEAN_ANOMALY":"284.4903","TIME_SYSTEM":"UTC","MEAN_MOTION_DDOT":"0.0000000000000","ELEMENT_SET_NO":"999","PERIOD":"95.593","INCLINATION":"53.0531","TLE_LINE2":"2 45411  53.0531 149.8174 0001897  75.6297 284.4903 15.06391398 87706","RA_OF_ASC_NODE":"149.8174","EPOCH":"2021-10-14T21:22:34.092768","APOAPSIS":"548.554","OBJECT_ID":"2020-019BD","GP_ID":"187187019","MEAN_MOTION":"15.06391398","EPHEMERIS_TYPE":"0","ECCENTRICITY":"0.00018970","RCS_SIZE":"LARGE","TLE_LINE1":"1 45411U 20019BD  21287.89067237 -.00000927  00000-0 -43347-4 0  9994"},{"MEAN_MOTION_DDOT":"0.0000000000000","ELEMENT_SET_NO":"999","PERIOD":"95.592","INCLINATION":"53.0545","TLE_LINE2":"2 45412  53.0545 152.3576 0001886  68.1090 292.0100 15.06403077 87592","RA_OF_ASC_NODE":"152.3576","APOAPSIS":"548.510","EPOCH":"2021-10-14T07:50:27.917664","EPHEMERIS_TYPE":"0","OBJECT_ID":"2020-019BE","GP_ID":"187156077","MEAN_MOTION":"15.06403077","TLE_LINE1":"1 45412U 20019BE  21287.32671201 -.00000541  00000-0 -17439-4 0  9990","RCS_SIZE":"LARGE","ECCENTRICITY":"0.00018860","PERIAPSIS":"545.898","REV_AT_EPOCH":"8759","MEAN_MOTION_DOT":"-0.00000541","OBJECT_TYPE":"PAYLOAD","SEMIMAJOR_AXIS":"6925.339","NORAD_CAT_ID":"45412","LAUNCH_DATE":"2020-03-18","COUNTRY_CODE":"US","DECAY_DATE":null,"ARG_OF_PERICENTER":"68.1090","CLASSIFICATION_TYPE":"U","REF_FRAME":"TEME","SITE":"AFETR","FILE":"3162551","BSTAR":"-0.00001743900000","MEAN_ELEMENT_THEORY":"SGP4","CENTER_NAME":"EARTH","MEAN_ANOMALY":"292.0100","OBJECT_NAME":"STARLINK-1296","TIME_SYSTEM":"UTC"},{"OBJECT_ID":"2020-019BF","GP_ID":"187188021","MEAN_MOTION":"15.06391280","EPHEMERIS_TYPE":"0","EPOCH":"2021-10-14T21:17:15.435744","APOAPSIS":"548.555","ECCENTRICITY":"0.00018990","TLE_LINE1":"1 45413U 20019BF  21287.88698421 -.00000789  00000-0 -34072-4 0  9991","RCS_SIZE":"LARGE","MEAN_MOTION_DDOT":"0.0000000000000","ELEMENT_SET_NO":"999","RA_OF_ASC_NODE":"149.8477","TLE_LINE2":"2 45413  53.0526 149.8477 0001899  69.3796 290.7397 15.06391280 87778","PERIOD":"95.593","INCLINATION":"53.0526","BSTAR":"-0.00003407200000","FILE":"3163138","SITE":"AFETR","MEAN_ELEMENT_THEORY":"SGP4","CENTER_NAME":"EARTH","REF_FRAME":"TEME","CLASSIFICATION_TYPE":"U","NORAD_CAT_ID":"45413","LAUNCH_DATE":"2020-03-18","COUNTRY_CODE":"US","DECAY_DATE":null,"ARG_OF_PERICENTER":"69.3796","SEMIMAJOR_AXIS":"6925.375","TIME_SYSTEM":"UTC","OBJECT_NAME":"STARLINK-1298","MEAN_ANOMALY":"290.7397","MEAN_MOTION_DOT":"-0.00000789","REV_AT_EPOCH":"8777","PERIAPSIS":"545.925","OBJECT_TYPE":"PAYLOAD"},{"TIME_SYSTEM":"UTC","OBJECT_NAME":"STARLINK-1309","MEAN_ANOMALY":"277.5756","FILE":"3162520","SITE":"AFETR","BSTAR":"0.00001717300000","MEAN_ELEMENT_THEORY":"SGP4","CENTER_NAME":"EARTH","CLASSIFICATION_TYPE":"U","REF_FRAME":"TEME","COUNTRY_CODE":"US","LAUNCH_DATE":"2020-03-18","NORAD_CAT_ID":"45414","ARG_OF_PERICENTER":"82.5400","DECAY_DATE":null,"SEMIMAJOR_AXIS":"6925.375","OBJECT_TYPE":"PAYLOAD","MEAN_MOTION_DOT":"-0.00000026","REV_AT_EPOCH":"8760","PERIAPSIS":"546.221","ECCENTRICITY":"0.00014710","TLE_LINE1":"1 45414U 20019BG  21287.34146375 -.00000026  00000-0  17173-4 0  9995","RCS_SIZE":"LARGE","OBJECT_ID":"2020-019BG","GP_ID":"187156637","MEAN_MOTION":"15.06391491","EPHEMERIS_TYPE":"0","EPOCH":"2021-10-14T08:11:42.468000","APOAPSIS":"548.258","TLE_LINE2":"2 45414  53.0531 152.2973 0001471  82.5400 277.5756 15.06391491 87607","RA_OF_ASC_NODE":"152.2973","PERIOD":"95.593","INCLINATION":"53.0531","MEAN_MOTION_DDOT":"0.0000000000000","ELEMENT_SET_NO":"999"}];
